BEIDOU-2 IGSO-1 (C06)   
1 36828U 10036A   25307.13434792 -.00000048  00000+0  00000+0 0  9998
2 36828  54.2774 165.0082 0051043 216.1325 176.5843  1.00287580 55839
BEIDOU-2 G4 (C04)       
1 37210U 10057A   25310.27991178 -.00000102  00000+0  00000+0 0  9993
2 37210   3.0912  70.0394 0010444 180.9453  55.5384  1.00272333 55052
BEIDOU-2 IGSO-2 (C07)   
1 37256U 10068A   25295.62146750 -.00000196  00000+0  00000+0 0  9997
2 37256  47.9774 274.7760 0047363 217.7614 226.5684  1.00248503 54417
BEIDOU-2 IGSO-3 (C08)   
1 37384U 11013A   25309.69848626 -.00000205  00000+0  00000+0 0  9995
2 37384  62.0948  42.2720 0036045 183.8444 178.2486  1.00279049 53425
BEIDOU-2 IGSO-4 (C09)   
1 37763U 11038A   25308.41009765  .00000053  00000+0  00000+0 0  9995
2 37763  54.5750 167.6901 0147975 230.3792 246.1984  1.00289285 52391
BEIDOU-2 IGSO-5 (C10)   
1 37948U 11073A   25309.84296020 -.00000170  00000+0  00000+0 0  9990
2 37948  48.0904 274.3102 0108906 221.9263 305.7768  1.00254297 50894
BEIDOU-2 G5 (C05)       
1 38091U 12008A   25310.11712537  .00000067  00000+0  00000+0 0  9991
2 38091   3.0149  70.8170 0010511 221.0310 214.6443  1.00273601 50133
BEIDOU-2 M3 (C11)       
1 38250U 12018A   25309.81407387 -.00000048  00000+0  00000+0 0  9998
2 38250  55.9509 312.3989 0024790 270.7591  88.9706  1.86229703 91782
BEIDOU-2 M4 (C12)       
1 38251U 12018B   25309.74614755 -.00000048  00000+0  00000+0 0  9990
2 38251  55.8529 311.6333 0015939 272.4156  87.4148  1.86231997 91782
BEIDOU-2 M6 (C14)       
1 38775U 12050B   25309.99413352 -.00000026  00000+0  00000+0 0  9990
2 38775  56.3476  70.2863 0010486 351.6642   8.2959  1.86230707 89155
BEIDOU-2 G6 (C02)       
1 38953U 12059A   25309.97945943 -.00000164  00000+0  00000+0 0  9994
2 38953   3.8523  75.8538 0006436 292.6159 113.6118  1.00268217 47672
BEIDOU-3S IGSO-1S (C31) 
1 40549U 15019A   25297.52891953 -.00000131  00000+0  00000+0 0  9999
2 40549  49.6453 298.3029 0040504 197.6198 177.4401  1.00251575 38711
BEIDOU-3S M2S (C58)     
1 40748U 15037A   25309.95116606 -.00000049  00000+0  00000+0 0  9994
2 40748  55.0708 309.7267 0012900 262.5057  97.3561  1.86229007 69969
BEIDOU-3S M1S (C57)     
1 40749U 15037B   25310.18621392 -.00000050  00000+0  00000+0 0  9997
2 40749  55.0671 309.7087 0002999 351.6104   8.3924  1.86253781 69971
BEIDOU-3S IGSO-2S (C56) 
1 40938U 15053A   25309.83897369 -.00000164  00000+0  00000+0 0  9990
2 40938  49.5726 261.4426 0061561 189.2140 352.7107  1.00278086 37117
BEIDOU-2 IGSO-6 (C13)   
1 41434U 16021A   25307.97327598 -.00000166  00000+0  00000+0 0  9995
2 41434  59.9119  40.2900 0058327 229.6392 217.6375  1.00261038 35229
BEIDOU-2 G7 (C03)       
1 41586U 16037A   25309.98466113 -.00000343  00000+0  00000+0 0  9997
2 41586   1.6645  67.3165 0004792 338.4731 104.6459  1.00276229  4650
BEIDOU-3 M1 (C19)       
1 43001U 17069A   25309.75964597 -.00000025  00000+0  00000+0 0  9998
2 43001  56.4957  70.4559 0007710 307.0048  52.9023  1.86230763 54447
BEIDOU-3 M2 (C20)       
1 43002U 17069B   25309.69795440 -.00000025  00000+0  00000+0 0  9991
2 43002  56.4948  70.4940 0005502 342.1056  17.8525  1.86230608 54432
BEIDOU-3 M7 (C27)       
1 43107U 18003A   25309.97850883 -.00000051  00000+0  00000+0 0  9999
2 43107  54.5289 310.0933 0002282  81.4597 278.5753  1.86232312 53190
BEIDOU-3 M8 (C28)       
1 43108U 18003B   25309.92311360 -.00000051  00000+0  00000+0 0  9997
2 43108  54.5217 310.0781 0005005 266.8306  93.1213  1.86230802 53202
BEIDOU-3 M4 (C22)       
1 43207U 18018A   25309.82788443 -.00000025  00000+0  00000+0 0  9993
2 43207  56.4550  70.5252 0004356  30.5102 329.4925  1.86230702 52586
BEIDOU-3 M3 (C21)       
1 43208U 18018B   25308.82052791 -.00000021  00000+0  00000+0 0  9999
2 43208  56.4531  70.5628 0005322 325.0757  34.8680  1.86230860 52563
BEIDOU-3 M9 (C29)       
1 43245U 18029A   25310.11029017 -.00000050  00000+0  00000+0 0  9994
2 43245  54.3987 307.7453 0002161 259.1370 100.8433  1.86232348 51745
BEIDOU-3 M10 (C30)      
1 43246U 18029B   25310.04570372 -.00000050  00000+0  00000+0 0  9992
2 43246  54.3961 307.7748 0003422 354.8666   5.1348  1.86228927 51725
BEIDOU-2 IGSO-7 (C16)   
1 43539U 18057A   25310.34992611 -.00000053  00000+0  00000+0 0  9998
2 43539  55.1692 164.9912 0092004 235.5014 243.6775  1.00267932 26890
BEIDOU-3 M5 (C23)       
1 43581U 18062A   25307.04879657  .00000063  00000+0  00000+0 0  9998
2 43581  54.0897 189.9944 0002619 328.4068  31.6685  1.86228548 49421
BEIDOU-3 M6 (C24)       
1 43582U 18062B   25310.13382898  .00000067  00000+0  00000+0 0  9993
2 43582  54.0891 189.8784 0007158  39.4855 320.6689  1.86229636 49483
BEIDOU-3 M12 (C26)      
1 43602U 18067A   25308.99733501  .00000074  00000+0  00000+0 0  9991
2 43602  54.1833 188.6445 0008926  37.7246 322.4398  1.86227566 48940
BEIDOU-3 M11 (C25)      
1 43603U 18067B   25308.05781781  .00000072  00000+0  00000+0 0  9990
2 43603  54.1808 188.6404 0005347  31.1160 329.0138  1.86227092 48955
BEIDOU-3 M13 (C32)      
1 43622U 18072A   25307.47763623 -.00000012  00000+0  00000+0 0  9992
2 43622  56.4254  70.1200 0004472 303.3724  56.5679  1.86230802 48453
BEIDOU-3 M14 (C33)      
1 43623U 18072B   25308.95396162 -.00000022  00000+0  00000+0 0  9998
2 43623  56.4289  70.0651 0002576 356.8828   3.0942  1.86230785 48474
BEIDOU-3 M16 (C35)      
1 43647U 18078A   25309.64929260 -.00000048  00000+0  00000+0 0  9996
2 43647  54.2950 307.8178 0006316  17.6446 342.3840  1.86232128 47995
BEIDOU-3 M15 (C34)      
1 43648U 18078B   25309.77848694 -.00000049  00000+0  00000+0 0  9993
2 43648  54.2909 307.8143 0003016  15.5146 344.5007  1.86232046 48012
BEIDOU-3 G1 (C59)       
1 43683U 18085A   25310.20878096 -.00000266  00000+0  00000+0 0  9990
2 43683   2.5132 104.1611 0002386  54.2643 102.5219  1.00273571 25829
BEIDOU-3 M17 (C36)      
1 43706U 18093A   25310.20226924  .00000066  00000+0  00000+0 0  9999
2 43706  54.1729 189.8627 0007113 302.9058 235.3213  1.86228146 47389
BEIDOU-3 M18 (C37)      
1 43707U 18093B   25310.33460338  .00000065  00000+0  00000+0 0  9992
2 43707  54.1736 189.8500 0006694 343.0491  17.0310  1.86229821 47382
BEIDOU-3 IGSO-1 (C38)   
1 44204U 19023A   25308.86682160 -.00000233  00000+0  00000+0 0  9991
2 44204  58.3807  39.9704 0026433 219.6831 213.3318  1.00255332  4968
BEIDOU-2 G8 (C01)       
1 44231U 19027A   25310.28004655 -.00000237  00000+0  00000+0 0  9995
2 44231   1.5666  74.5758 0007502 254.5459 322.0074  1.00272485 23848
BEIDOU-3 IGSO-2 (C39)   
1 44337U 19035A   25309.98648115 -.00000052  00000+0  00000+0 0  9996
2 44337  55.2169 160.8258 0037350 202.3997 156.4624  1.00282479 23423
BEIDOU-3 M24 (C46)      
1 44542U 19061A   25309.86922720  .00000069  00000+0  00000+0 0  9994
2 44542  54.4007 190.2610 0009359  18.3153 341.8204  1.86229312 41637
BEIDOU-3 M23 (C45)      
1 44543U 19061B   25310.28724984  .00000065  00000+0  00000+0 0  9991
2 44543  54.3989 190.2152 0005871  12.7532 180.4674  1.86229384 41649
BEIDOU-3 IGSO-3 (C40)   
1 44709U 19073A   25310.33499330 -.00000206  00000+0  00000+0 0  9996
2 44709  55.1881 283.3089 0044760 191.9762 167.8421  1.00254487 22221
BEIDOU-3 M22 (C44)      
1 44793U 19078A   25309.70965051 -.00000049  00000+0  00000+0 0  9996
2 44793  54.1417 307.6854 0005064  22.0628 337.9651  1.86231881 40487
BEIDOU-3 M21 (C43)      
1 44794U 19078B   25309.84647333 -.00000049  00000+0  00000+0 0  9992
2 44794  54.1149 307.6463 0003283   7.1821 352.8280  1.86227564 40494
BEIDOU-3 M19 (C41)      
1 44864U 19090A   25308.43407205 -.00000019  00000+0  00000+0 0  9997
2 44864  56.3607  70.2320 0016386 284.7772  43.7155  1.86231131 40049
BEIDOU-3 M20 (C42)      
1 44865U 19090B   25310.24135677 -.00000027  00000+0  00000+0 0  9990
2 44865  56.3640  70.2059 0013655 298.7823 251.0165  1.86231043 40063
BEIDOU-3 G2 (C60)       
1 45344U 20017A   25310.22891782 -.00000132  00000+0  00000+0 0  9995
2 45344   2.9314  43.0626 0003493 257.4095 267.7017  1.00271535 21022
BEIDOU-3 G3 (C61)       
1 45807U 20040A   25310.27011840 -.00000344  00000+0  00000+0 0  9994
2 45807   1.9001  66.2131 0004488 304.7340 242.6144  1.00269487 19832
BEIDOU-3 G4 (C62)       
1 56564U 23066A   25310.14211591 -.00000102  00000+0  00000+0 0  9990
2 56564   0.8987 299.2023 0004293 228.4091  89.2005  1.00271940  9154
BEIDOU-3 M28 (C50)      
1 58654U 23207A   25309.92491676 -.00000028  00000+0  00000+0 0  9994
2 58654  55.5527  69.8476 0000974 246.0531 113.9149  1.86229573 12688
BEIDOU-3 M26 (C48)      
1 58655U 23207B   25310.25981339 -.00000029  00000+0  00000+0 0  9994
2 58655  55.5553  69.8223 0002548 237.5181 122.4356  1.86231127 12675
BEIDOU-3 M25 (C47)      
1 61186U 24168B   25310.31175162 -.00000051  00000+0  00000+0 0  9995
2 61186  54.6740 309.9824 0005531 287.1005 224.7038  1.86229746  7639
BEIDOU-3 M27 (C49)      
1 61187U 24168C   25309.88170059 -.00000050  00000+0  00000+0 0  9995
2 61187  54.6698 309.9811 0001970 314.1561  44.2459  1.86229859  5094
